*******************************************************************************
Ephemeris / WWW_USER Mon Jul 15 19:12:44 2024 Pasadena, USA      / Horizons    
*******************************************************************************
Target body name: (2018 VS1)                      {source: JPL#4}
Center body name: Earth (399)                     {source: DE441}
Center-site name: Gemini South Obs., Cerro Pachon
*******************************************************************************
Start time      : A.D. 2018-Dec-19 23:52:00.0000 UT      
Stop  time      : A.D. 2018-Dec-20 09:28:00.0000 UT      
Step-size       : 1 minutes
*******************************************************************************
Target pole/equ : undefined
Target radii    : undefined                                                    
Center geodetic : 289.2634, -30.2406227, 2.71233  {E-lon(deg),Lat(deg),Alt(km)}
Center cylindric: 289.2634,5517.21435,-3194.81213 {E-lon(deg),Dxy(km),Dz(km)}
Center pole/equ : ITRF93                          {East-longitude positive}
Center radii    : 6378.137, 6378.137, 6356.752 km {Equator_a, b, pole_c}       
Target primary  : Sun
Vis. interferer : MOON (R_eq= 1737.400) km        {source: DE441}
Rel. light bend : Sun                             {source: DE441}
Rel. lght bnd GM: 1.3271E+11 km^3/s^2                                          
Small-body perts: Yes                             {source: SB441-N16}
Atmos refraction: NO (AIRLESS)
RA format       : HMS
Time format     : CAL 
Calendar mode   : Mixed Julian/Gregorian
RTS-only print  : NO       
EOP file        : eop.240715.p241008                                           
EOP coverage    : DATA-BASED 1962-JAN-20 TO 2024-JUL-15. PREDICTS-> 2024-OCT-07
Units conversion: 1 au= 149597870.700 km, c= 299792.458 km/s, 1 day= 86400.0 s 
Table cut-offs 1: Elevation (-90.0deg=NO ),Airmass (>38.000=NO), Daylight (YES)
Table cut-offs 2: Solar elongation (  0.0,180.0=NO ),Local Hour Angle( 0.0=NO )
Table cut-offs 3: RA/DEC angular rate (     0.0=NO )                           
*******************************************************************************
Initial IAU76/J2000 heliocentric ecliptic osculating elements (au, days, deg.):
  EPOCH=  2458427.5 ! 2018-Nov-05.00 (TDB)         Residual RMS= .21634        
   EC= .3907275528854954   QR= .7806320880190512   TP= 2458486.1030618688      
   OM= 55.95483604725189   W=  67.17004921097404   IN= 3.601110299269385       
  Equivalent ICRF heliocentric cartesian coordinates (au, au/d):
   X= 7.595935200506908E-01  Y= 6.354459268576240E-01  Z= 2.586666727482118E-01
  VX=-1.643099138746886E-02 VY= 7.530892270769961E-03 VZ= 4.533522122669557E-03
Asteroid physical parameters (km, seconds, rotational period in hours):        
   GM= n.a.                RAD= n.a.               ROTPER= n.a.                
   H= 26.6                 G= .150                 B-V= n.a.                   
                           ALBEDO= n.a.            STYP= n.a.                  
*******************************************************************************
 Date__(UT)__HR:MN     R.A._________(ICRF)_________DEC
******************************************************
$$SOE
 2018-Dec-19 23:52 Cm  15 08 17.950801 -09 40 25.27364
 2018-Dec-19 23:53 Cm  15 08 18.017345 -09 40 25.60279
 2018-Dec-19 23:54 Cm  15 08 18.083909 -09 40 25.93203
 2018-Dec-19 23:55 Cm  15 08 18.150493 -09 40 26.26136
 2018-Dec-19 23:56 Cm  15 08 18.217097 -09 40 26.59078
 2018-Dec-19 23:57 Cm  15 08 18.283720 -09 40 26.92029
 2018-Dec-19 23:58 Cm  15 08 18.350362 -09 40 27.24989
 2018-Dec-19 23:59 Cm  15 08 18.417024 -09 40 27.57958
 2018-Dec-20 00:00 Cm  15 08 18.483705 -09 40 27.90936
 2018-Dec-20 00:01 Cm  15 08 18.550404 -09 40 28.23924
 2018-Dec-20 00:02 Cm  15 08 18.617123 -09 40 28.56920
 2018-Dec-20 00:03 Cm  15 08 18.683860 -09 40 28.89926
 2018-Dec-20 00:04 Cm  15 08 18.750616 -09 40 29.22940
 2018-Dec-20 00:05 Cm  15 08 18.817390 -09 40 29.55964
 2018-Dec-20 00:06 Cm  15 08 18.884182 -09 40 29.88998
 2018-Dec-20 00:07 Cm  15 08 18.950993 -09 40 30.22040
 2018-Dec-20 00:08 Cm  15 08 19.017822 -09 40 30.55092
 2018-Dec-20 00:09 Cm  15 08 19.084668 -09 40 30.88152
 2018-Dec-20 00:10 Cm  15 08 19.151532 -09 40 31.21223
 2018-Dec-20 00:11 Nm  15 08 19.218414 -09 40 31.54302
 2018-Dec-20 00:12 Nm  15 08 19.285313 -09 40 31.87391
 2018-Dec-20 00:13 Nm  15 08 19.352229 -09 40 32.20489
 2018-Dec-20 00:14 Nm  15 08 19.419163 -09 40 32.53596
 2018-Dec-20 00:15 Nm  15 08 19.486113 -09 40 32.86713
 2018-Dec-20 00:16 Nm  15 08 19.553080 -09 40 33.19839
 2018-Dec-20 00:17 Nm  15 08 19.620064 -09 40 33.52975
 2018-Dec-20 00:18 Nm  15 08 19.687065 -09 40 33.86119
 2018-Dec-20 00:19 Nm  15 08 19.754082 -09 40 34.19274
 2018-Dec-20 00:20 Nm  15 08 19.821115 -09 40 34.52438
 2018-Dec-20 00:21 Nm  15 08 19.888165 -09 40 34.85611
 2018-Dec-20 00:22 Nm  15 08 19.955230 -09 40 35.18794
 2018-Dec-20 00:23 Nm  15 08 20.022311 -09 40 35.51986
 2018-Dec-20 00:24 Nm  15 08 20.089408 -09 40 35.85187
 2018-Dec-20 00:25 Nm  15 08 20.156521 -09 40 36.18399
 2018-Dec-20 00:26 Nm  15 08 20.223649 -09 40 36.51619
 2018-Dec-20 00:27 Nm  15 08 20.290792 -09 40 36.84850
 2018-Dec-20 00:28 Nm  15 08 20.357950 -09 40 37.18090
 2018-Dec-20 00:29 Nm  15 08 20.425123 -09 40 37.51339
 2018-Dec-20 00:30 Nm  15 08 20.492312 -09 40 37.84598
 2018-Dec-20 00:31 Nm  15 08 20.559514 -09 40 38.17867
 2018-Dec-20 00:32 Nm  15 08 20.626732 -09 40 38.51145
 2018-Dec-20 00:33 Nm  15 08 20.693963 -09 40 38.84433
 2018-Dec-20 00:34 Nm  15 08 20.761209 -09 40 39.17730
 2018-Dec-20 00:35 Nm  15 08 20.828469 -09 40 39.51037
 2018-Dec-20 00:36 Nm  15 08 20.895743 -09 40 39.84354
 2018-Dec-20 00:37 Nm  15 08 20.963031 -09 40 40.17681
 2018-Dec-20 00:38 Nm  15 08 21.030332 -09 40 40.51017
 2018-Dec-20 00:39 Nm  15 08 21.097647 -09 40 40.84363
 2018-Dec-20 00:40 Nm  15 08 21.164976 -09 40 41.17719
 2018-Dec-20 00:41 Nm  15 08 21.232317 -09 40 41.51084
 2018-Dec-20 00:42 Nm  15 08 21.299671 -09 40 41.84459
 2018-Dec-20 00:43 Nm  15 08 21.367039 -09 40 42.17844
 2018-Dec-20 00:44 Nm  15 08 21.434419 -09 40 42.51239
 2018-Dec-20 00:45 Am  15 08 21.501812 -09 40 42.84643
 2018-Dec-20 00:46 Am  15 08 21.569217 -09 40 43.18058
 2018-Dec-20 00:47 Am  15 08 21.636634 -09 40 43.51482
 2018-Dec-20 00:48 Am  15 08 21.704064 -09 40 43.84916
 2018-Dec-20 00:49 Am  15 08 21.771506 -09 40 44.18359
 2018-Dec-20 00:50 Am  15 08 21.838959 -09 40 44.51813
 2018-Dec-20 00:51 Am  15 08 21.906424 -09 40 44.85276
 2018-Dec-20 00:52 Am  15 08 21.973901 -09 40 45.18750
 2018-Dec-20 00:53 Am  15 08 22.041389 -09 40 45.52233
 2018-Dec-20 00:54 Am  15 08 22.108889 -09 40 45.85726
 2018-Dec-20 00:55 Am  15 08 22.176399 -09 40 46.19229
 2018-Dec-20 00:56 Am  15 08 22.243921 -09 40 46.52742
 2018-Dec-20 00:57 Am  15 08 22.311453 -09 40 46.86265
 2018-Dec-20 00:58 Am  15 08 22.378996 -09 40 47.19797
 2018-Dec-20 00:59 Am  15 08 22.446549 -09 40 47.53340
 2018-Dec-20 01:00 Am  15 08 22.514113 -09 40 47.86893
 2018-Dec-20 01:01 Am  15 08 22.581686 -09 40 48.20455
 2018-Dec-20 01:02 Am  15 08 22.649270 -09 40 48.54028
 2018-Dec-20 01:03 Am  15 08 22.716864 -09 40 48.87610
 2018-Dec-20 01:04 Am  15 08 22.784467 -09 40 49.21203
 2018-Dec-20 01:05 Am  15 08 22.852080 -09 40 49.54805
 2018-Dec-20 01:06 Am  15 08 22.919703 -09 40 49.88418
 2018-Dec-20 01:07 Am  15 08 22.987335 -09 40 50.22040
 2018-Dec-20 01:08 Am  15 08 23.054975 -09 40 50.55672
 2018-Dec-20 01:09 Am  15 08 23.122625 -09 40 50.89315
 2018-Dec-20 01:10 Am  15 08 23.190284 -09 40 51.22968
 2018-Dec-20 01:11 Am  15 08 23.257951 -09 40 51.56630
 2018-Dec-20 01:12 Am  15 08 23.325627 -09 40 51.90303
 2018-Dec-20 01:13 Am  15 08 23.393311 -09 40 52.23985
 2018-Dec-20 01:14 Am  15 08 23.461003 -09 40 52.57678
 2018-Dec-20 01:15 Am  15 08 23.528703 -09 40 52.91381
 2018-Dec-20 01:16 Am  15 08 23.596411 -09 40 53.25094
 2018-Dec-20 01:17 Am  15 08 23.664127 -09 40 53.58817
 2018-Dec-20 01:18 Am  15 08 23.731850 -09 40 53.92550
 2018-Dec-20 01:19 Am  15 08 23.799581 -09 40 54.26293
 2018-Dec-20 01:20 Am  15 08 23.867319 -09 40 54.60046
 2018-Dec-20 01:21  m  15 08 23.935064 -09 40 54.93810
 2018-Dec-20 01:22  m  15 08 24.002816 -09 40 55.27583
 2018-Dec-20 01:23  m  15 08 24.070575 -09 40 55.61367
 2018-Dec-20 01:24  m  15 08 24.138341 -09 40 55.95160
 2018-Dec-20 01:25  m  15 08 24.206113 -09 40 56.28964
 2018-Dec-20 01:26  m  15 08 24.273891 -09 40 56.62778
 2018-Dec-20 01:27  m  15 08 24.341675 -09 40 56.96602
 2018-Dec-20 01:28  m  15 08 24.409466 -09 40 57.30436
 2018-Dec-20 01:29  m  15 08 24.477262 -09 40 57.64281
 2018-Dec-20 01:30  m  15 08 24.545064 -09 40 57.98135
 2018-Dec-20 01:31  m  15 08 24.612871 -09 40 58.32000
 2018-Dec-20 01:32  m  15 08 24.680684 -09 40 58.65875
 2018-Dec-20 01:33  m  15 08 24.748502 -09 40 58.99760
 2018-Dec-20 01:34  m  15 08 24.816325 -09 40 59.33655
 2018-Dec-20 01:35  m  15 08 24.884154 -09 40 59.67560
 2018-Dec-20 01:36  m  15 08 24.951986 -09 41 00.01476
 2018-Dec-20 01:37  m  15 08 25.019824 -09 41 00.35401
 2018-Dec-20 01:38  m  15 08 25.087666 -09 41 00.69337
 2018-Dec-20 01:39  m  15 08 25.155512 -09 41 01.03283
 2018-Dec-20 01:40  m  15 08 25.223362 -09 41 01.37240
 2018-Dec-20 01:41  m  15 08 25.291216 -09 41 01.71206
 2018-Dec-20 01:42  m  15 08 25.359074 -09 41 02.05183
 2018-Dec-20 01:43  m  15 08 25.426936 -09 41 02.39169
 2018-Dec-20 01:44  m  15 08 25.494801 -09 41 02.73166
 2018-Dec-20 01:45  m  15 08 25.562670 -09 41 03.07174
 2018-Dec-20 01:46  m  15 08 25.630542 -09 41 03.41191
 2018-Dec-20 01:47  m  15 08 25.698417 -09 41 03.75219
 2018-Dec-20 01:48  m  15 08 25.766294 -09 41 04.09256
 2018-Dec-20 01:49  m  15 08 25.834175 -09 41 04.43304
 2018-Dec-20 01:50  m  15 08 25.902057 -09 41 04.77363
 2018-Dec-20 01:51  m  15 08 25.969943 -09 41 05.11431
 2018-Dec-20 01:52  m  15 08 26.037830 -09 41 05.45510
 2018-Dec-20 01:53  m  15 08 26.105720 -09 41 05.79599
 2018-Dec-20 01:54  m  15 08 26.173612 -09 41 06.13698
